#dP2021  5 22  0  0  0.00000000      96 __u+U ITR00 FIT  IAC
## 2158 518400.00000000   900.00000000 59356 0.0000000000000
+  125   C01C02C03C04C05C06C07C08C09C10C11C12C13C14C16C19C20
+        C21C22C23C24C25C26C27C28C29C30C32C33C34C35C36C37C39
+        C40C41C42C43C44C45C46C60E01E02E03E04E05E07E08E09E11
+        E12E13E14E15E18E19E21E24E25E26E27E30E31E33E36G01G02
+        G03G04G05G06G07G08G09G10G12G13G14G15G16G17G18G19G20
+        G21G22G23G24G25G26G27G28G29G30G31G32J01J02J03J07R01
+        R02R03R04R05R06R07R08R09R10R11R12R13R14R15R16R17R18
+        R19R20R21R22R23R24  0  0  0  0  0  0  0  0  0  0  0
++        13 13 13 13 13  9  9  9  9  9  9  9  9  9  9  8  8
++         8  8  8  7  8  8  8  8  8  8  8  8  8  8  8  8  9
++         8  8  9  8  8  9  8 13  4  4  5  4  5  5  4  5  4
++         4  4  5  4  4  4  4  5  5  4  4  4  4  5  4  4  4
++         4  4  4  4  4  4  4  4  4  4  4  4  4  4  3  4  4
++         4  4  4  4  4  4  4  7  4  3  4  4  9  9  8  0  8
++         6  6  6  6 13  6  6  6 13  8  5  7  5  5  7  6  6
++         8  8  6  8 13  6  0  0  0  0  0  0  0  0  0  0  0
%c M  cc GPS ccc cccc cccc cccc cccc ccccc ccccc ccccc ccccc
%c cc cc ccc ccc cccc cccc cccc cccc ccccc ccccc ccccc ccccc
%f  0.0000000  0.000000000  0.00000000000  0.000000000000000
%f  0.0000000  0.000000000  0.00000000000  0.000000000000000
%i    0    0    0    0      0      0      0      0         0
%i    0    0    0    0      0      0      0      0         0
/* INFORMATION & ANALYSIS CENTER (IAC)            RAPID DATA
/* S/V CLOCKS ARE ALIGNED TO GNSS TIME                      
/* G:C1WC2W R:C1PC2P E:C1XC5X C:C2IC6I J:C1CC2S             
/* PCV:IGS14_2148 OL/AL:FES2004  NONE     YN ORB:CoN CLK:CoN
*  2021 05 22  4 30  0.00000000
PC01 -34300.784197  24529.828513    206.191818   -444.281632
PC02   4327.391421  41891.641800  -1108.790166    658.681507
PC03 -14767.841717  39453.367446   -165.009968   -277.463976
PC04 -39603.170359  14450.245377    522.503289      9.624021
PC05  21869.572810  35996.330316   -949.759435   -126.436229
PC06  -7818.767711  26664.324742 -31096.984902    412.347420
PC07 -22499.782898  25775.116823  24570.958771    155.548138
PC08 -17574.746945  38235.421367   5001.123445   -890.770207
PC09   5242.292690  35031.770157 -22231.280330    505.986242
PC10  -5982.444473  27608.348352  31413.897941    -39.588687
PC11  19319.176877  14714.586974 -13725.729669    354.838323
PC12  12603.418409  24684.915880   3351.865299    874.070152
PC13  -9251.506859  40556.348333  -7538.816215    270.116798
PC14  25496.887477   5708.402015  -9858.682574    796.747029
PC16  -4467.906052  28662.814871 -30392.419536   -851.737234
PC19 -27873.736951    780.872682    736.411159    843.775761
PC20 -20103.332604 -10388.497688  16328.470683   -906.814625
PC21    -79.014184  15893.558347 -22913.629121   -939.382012
PC22 -19683.974918  11836.125560 -15816.822690   -954.637562
PC23  16813.941472 -21206.203583   6817.949511   -913.337703
PC24   9328.271777  15168.830925  21484.457559   -860.172390
PC25  18682.640474  -5520.187612  19970.052194   -913.313333
PC26  -3941.414343  25362.178582  10986.992983    903.674535
PC27  -5465.540848 -24676.485381 -11873.804450    535.610371
PC28   9686.701692 -13688.847280 -22306.333210    -71.574436
PC29 -19320.398822  -4547.500996  19607.098578    395.546295
PC30 -17953.356629 -20788.342688   4990.581833    467.868586
PC32     10.725252 -15930.389027  22932.942313   -930.970067
PC33  27893.284014   -924.129927   -748.689190   -937.355495
PC34  18195.379825  20355.709422  -5719.563429   -668.019043
PC35  -9538.607405  13721.231372  22334.216896   -269.595881
PC36 -18726.282361   4725.679579 -20117.014507   -726.496781
PC37   5210.265026 -25424.587273 -10217.985969   -888.280311
PC39   -484.677262  30088.276432 -29450.405316     31.250878
PC40 -14182.885510  22462.215648  32720.660244    163.339172
PC41  19899.108433 -11831.629511  15635.818012   -944.502829
PC42  19567.241652  10721.868082 -16724.777556   -914.362467
PC43  19505.734423   5077.278511 -19300.049322   -741.178357
PC44   6078.578253  24441.056732  11967.480013    200.139876
PC45 -16688.797541  21343.350736  -6718.754572    446.557755
PC46  -9985.179303 -14157.426265 -21863.794166    259.933075
PC60   7300.471119  41493.135955   1428.480470      0.380569
PE01  14981.544253 -21590.514298 -13620.344717  -1112.873267
PE02 -14886.533431  21603.526790  13716.037924    220.736722
PE03  -5036.028975  16467.886802 -24070.458184   -433.528414
PE04 -15511.950063 -19614.269559  15847.066659   -776.026096
PE05 -22982.745165   3591.125489 -18293.713067   -279.074011
PE07  27332.566107  11216.580407   1942.830066   -540.569628
PE08  15972.003859  19398.179165 -15649.433466   5998.300550
PE09 -27392.444080 -10994.261973  -2087.034419   5659.732264
PE11 -15715.204726 -11537.414351  22269.091861   5950.372584
PE12  -7592.588918 -27604.451237   7561.874879   5198.712302
PE13  15611.255751  11924.350376 -22137.690443    416.722346
PE14  16208.619094  20867.995083   7039.286044  -1439.345869
PE15   7684.749881  27546.636768  -7614.034721    812.990869
PE18  -4681.039701 -23316.107491 -17831.226611  -1575.731588
PE19   7431.509761 -15268.260954  24256.898074    282.909391
PE21  25492.813925 -14475.917564   4089.593794   -666.269700
PE24 -21240.855216  -2183.471696 -20520.711113   -913.062342
PE25 -25534.344588  14349.072153  -4279.463852   -534.558289
PE26  14283.099006 -11519.441527 -23227.144470   1782.884011
PE27  21684.588068   1359.390146  20101.297024    -37.574479
PE30   4127.661198  16871.164210  23960.346781   2926.075520
PE31  -5160.131823 -16273.604214 -24174.631367   -481.407945
PE33   4744.392650 -26927.536490 -11353.736669   -468.866103
PE36 -14332.971986  10667.542349  23597.108773   -210.372933
PG01 -13221.831114  14750.664545  17256.909131    682.054872
PG02  13363.503811  10636.914722 -19675.791032   -606.209424
PG03 -22934.302168  12835.155285  -3462.587307   -170.575830
PG04 -15677.567510   6047.324574 -20574.615235   -197.208249
PG05  24105.315770  -3121.943666 -11082.150373    -42.652819
PG06   7083.590215  21370.537591 -13987.110988     18.215378
PG07  -6884.530721  24640.221602  -5737.509164    157.563838
PG08 -21656.717550  -2169.307458  15418.171202    -22.121431
PG09  -5132.763177  14962.125983 -21393.234510   -346.910966
PG10  -2040.556576 -15378.238137  21644.190301   -126.807956
PG12  24378.626348 -10217.726679  -1879.613203    -44.375336
PG13  21886.303904  11460.466184   9800.012007    135.054966
PG14    872.674508  15797.066403  21320.900479     82.369704
PG15  21934.976294   -422.656762  14846.527830   -147.738833
PG16 -22466.933215  -2735.758176 -14509.969564   -329.021583
PG17   9348.626275  20369.661824  14674.424959    446.217421
PG18   5122.173405 -25888.960911  -2667.471481    349.722666
PG19  16277.868122  20096.384323   6029.081859      3.194708
PG20  23631.524423 -10599.147522  -5059.631839    521.943492
PG21 -15266.354885   6360.189539  21402.088090    119.803776
PG22 -24306.193371   7920.055878   7013.299848   -608.245848
PG23  10182.660282 -17809.669096  16821.916217    104.589487
PG24  14716.639535  -9724.086484  19498.034569     91.881754
PG25  16328.909364 -16853.576960 -12438.446234    141.674461
PG26 -15507.716572  -8471.488993 -19960.664819     88.447392
PG27 -23200.242264 -11818.683710   5981.785668   -134.190653
PG28   7165.341658  13557.618411  22226.150774    567.428326
PG29   6212.680425 -13793.081929 -21875.792849   -351.154245
PG30   1696.066353  25516.014493   6769.477849   -429.195719
PG31  -9034.954319 -18889.550142 -16145.971103   -118.665499
PG32 -12667.087474 -19885.195910  12510.057130     20.721233
PJ01 -32056.129917  14611.053806 -18511.849842   -382.646004
PJ02 -28624.976279  30879.995884   6263.512442      0.014272
PJ03 -25437.257376  23432.743882  29184.759640     -6.039899
PJ07      0.000000      0.000000      0.000000 999999.999999
PR01 -20370.887275  -8664.850344  12665.324974     79.798225
PR02 -24300.927344     66.421246  -7801.154436    479.534337
PR03 -12363.204110   8181.057164 -20723.150909     36.374101
PR04   6434.654120  11330.529967 -21895.249083     87.855679
PR05  21538.078754   8332.625049 -10794.657933     72.189489
PR06  23907.925042  -1362.057288   8756.520785    198.393153
PR07  11610.832265  -8461.049074  21109.412409    -42.444068
PR08  -6493.742729 -11474.765158  21899.876048    -59.116020
PR09  17609.051012 -10891.636397  14965.129178     -5.934255
PR10  15252.645218 -20392.932978   -557.925124    -70.889565
PR11   4112.957405 -18611.204715 -16948.657333     -5.789901
PR12  -9655.638937  -5393.347090 -22960.694679    230.878956
PR13 -17308.091767  10425.236931 -15583.704347    -55.103123
PR14 -14975.123288  20571.723863   1676.868345     64.526340
PR15  -3905.066498  18365.878569  17283.844034    103.698351
PR16  10492.696432   4444.731330  22790.780439    -15.372491
PR17  -3262.677362  16006.014805  19607.286480    426.098555
PR18   6404.868295  23929.493811   5972.959146     77.359125
PR19  12017.446171  20073.473927 -10169.465672   -144.662316
PR20  11464.151326   2180.999997 -22673.549093    -49.529168
PR21   2577.539367 -16869.290342 -18955.343225   -210.739593
PR22  -6858.879454 -24130.132487  -4921.952658   -113.877741
PR23 -13290.077262 -14795.196620  15963.658955    386.567701
PR24 -11737.920991  -1108.586525  22629.756826     43.580928
EOF
